ONEWEB-0156             
1 48052U 21025L   26001.97483492  .00000075  00000+0  17023-3 0  9991
2 48052  87.8987 353.2423 0001649  93.0604 267.0714 13.13470267231751
ONEWEB-0161             
1 48053U 21025M   26002.25414813  .00000230  00000+0  59611-3 0  9997
2 48053  87.8985 353.2008 0001542  91.4208 268.7098 13.13469368231723
ONEWEB-0158             
1 48054U 21025N   26001.98498195 -.00000164  00000+0 -48537-3 0  9995
2 48054  87.8989 353.2403 0001851  76.7816 283.3520 13.13468687231817
ONEWEB-0157             
1 48055U 21025P   26002.23890825 -.00000148  00000+0 -43948-3 0  9994
2 48055  87.8987 353.1957 0001337  94.2833 265.8449 13.13469504231782
ONEWEB-0162             
1 48056U 21025Q   26001.98653821 -.00000177  00000+0 -51974-3 0  9999
2 48056  87.8990 353.2483 0001759  90.5427 269.5903 13.13469245231720
ONEWEB-0155             
1 48057U 21025R   26001.99344250 -.00000254  00000+0 -72915-3 0  9998
2 48057  87.8988 353.2512 0001534  84.5894 275.5410 13.13470293231863
ONEWEB-0149             
1 48058U 21025S   26002.24398528 -.00000095  00000+0 -29525-3 0  9997
2 48058  87.8987 353.1951 0001804  93.2454 266.8882 13.13468995231703
ONEWEB-0148             
1 48059U 21025T   26001.97821095  .00000023  00000+0  28641-4 0  9995
2 48059  87.8980 353.2663 0001934 108.1523 251.9817 13.13468328231797
ONEWEB-0160             
1 48060U 21025U   26001.99513928 -.00000266  00000+0 -76289-3 0  9993
2 48060  87.8981 353.2603 0002359  75.2808 284.8582 13.13469221231748
ONEWEB-0163             
1 48061U 21025V   26001.97991023  .00000000  00000+0 -34980-4 0  9996
2 48061  87.8989 353.2511 0001407  89.6173 270.5117 13.13469486231864
ONEWEB-0159             
1 48062U 21025W   26002.04761668  .00000262  00000+0  68187-3 0  9990
2 48062  87.8990 353.2218 0001607  95.7467 264.3845 13.13468712231799
ONEWEB-0164             
1 48063U 21025X   26002.02900102  .00000301  00000+0  78936-3 0  9994
2 48063  87.8991 353.2319 0001728  84.4128 275.7198 13.13470575231771
ONEWEB-0167             
1 48064U 21025Y   26001.98076063 -.00000172  00000+0 -50625-3 0  9992
2 48064  87.8979 353.2675 0001063  70.2070 289.9174 13.13470143231754
ONEWEB-0166             
1 48065U 21025Z   26002.23213499 -.00000344  00000+0 -97645-3 0  9992
2 48065  87.8989 353.1754 0001719  92.6724 267.4602 13.13468707231867
ONEWEB-0151             
1 48066U 21025AA  26002.23383189 -.00000261  00000+0 -75041-3 0  9991
2 48066  87.8989 353.2019 0001618  82.8203 277.3110 13.13468550231808
ONEWEB-0170             
1 48067U 21025AB  26002.24229128 -.00000021  00000+0 -92968-4 0  9997
2 48067  87.8985 353.2040 0001830  71.3153 288.8175 13.13469323231764
ONEWEB-0168             
1 48068U 21025AC  26001.99852300 -.00000277  00000+0 -79309-3 0  9999
2 48068  87.8991 353.2392 0001561  90.7984 269.3324 13.13469235231740
ONEWEB-0173             
1 48069U 21025AD  26001.99005873 -.00000222  00000+0 -64195-3 0  9992
2 48069  87.8992 353.2484 0001289  88.2043 271.9234 13.13469018231983
ONEWEB-0171             
1 48070U 21025AE  26002.25583946  .00000226  00000+0  58285-3 0  9991
2 48070  87.8979 353.2145 0001591  82.9860 277.1450 13.13469697231833
ONEWEB-0172             
1 48071U 21025AF  26002.23551813 -.00000195  00000+0 -56925-3 0  9994
2 48071  87.8986 353.2040 0001562  83.6923 276.4384 13.13469500232722
ONEWEB-0174             
1 48072U 21025AG  26001.98836762 -.00000198  00000+0 -57663-3 0  9998
2 48072  87.8982 353.2555 0001706  92.9953 267.1371 13.13469294232011
ONEWEB-0175             
1 48073U 21025AH  26002.24737232 -.00000005  00000+0 -48439-4 0  9990
2 48073  87.8990 353.1743 0001569  74.8796 285.2507 13.13468720231700
ONEWEB-0177             
1 48074U 21025AJ  26002.25922796  .00000303  00000+0  79597-3 0  9990
2 48074  87.8992 353.1919 0001562  93.2087 266.9221 13.13469545231894
ONEWEB-0178             
1 48075U 21025AK  26002.04945145  .00000200  00000+0  51374-3 0  9990
2 48075  87.8977 353.2722 0001454  85.3654 274.7641 13.13468151231911
ONEWEB-0108             
1 48076U 21025AL  26002.00868630 -.00000088  00000+0 -27587-3 0  9995
2 48076  87.8987 353.2314 0001929  86.7916 273.3434 13.13470315231834
ONEWEB-0169             
1 48077U 21025AM  26002.26937540  .00000303  00000+0  79531-3 0  9995
2 48077  87.8982 353.1991 0001907  90.1593 269.9755 13.13468014230521
ONEWEB-0176             
1 48210U 21031A   26001.78552066  .00000192  00000+0  48228-3 0  9998
2 48210  87.9009 322.8558 0001618  78.7459 281.3852 13.14502158226457
ONEWEB-0184             
1 48211U 21031B   26001.91078941 -.00000184  00000+0 -53086-3 0  9990
2 48211  87.9022 322.8142 0001462  50.6699 309.4561 13.14502208226448
ONEWEB-0179             
1 48212U 21031C   26001.80533666  .00000253  00000+0  64750-3 0  9994
2 48212  87.9014 322.8418 0001617  88.4035 271.7280 13.14504306226474
ONEWEB-0180             
1 48213U 21031D   26001.91396296 -.00000151  00000+0 -44089-3 0  9995
2 48213  87.9021 322.8192 0001410  81.8832 278.2457 13.14502330226377
ONEWEB-0218             
1 48214U 21031E   26002.31674182  .00000070  00000+0  15362-3 0  9994
2 48214  87.9019 322.7390 0001105  50.1146 310.0081 13.14504806226583
ONEWEB-0209             
1 48215U 21031F   26002.30565477 -.00000115  00000+0 -34492-3 0  9997
2 48215  87.9006 322.7756 0001592  86.8389 273.2923 13.14502173226581
ONEWEB-0198             
1 48216U 21031G   26001.90933925 -.00000167  00000+0 -48558-3 0  9995
2 48216  87.9009 322.8515 0001280  79.4771 280.6503 13.14501977226640
ONEWEB-0189             
1 48217U 21031H   26002.30247524 -.00000135  00000+0 -39861-3 0  9996
2 48217  87.9014 322.7478 0001365  79.3593 280.7691 13.14501807226437
ONEWEB-0196             
1 48218U 21031J   26002.28026449 -.00000043  00000+0 -15077-3 0  9996
2 48218  87.9009 322.7656 0001540  84.8196 275.3109 13.14505040226432
ONEWEB-0183             
1 48219U 21031K   26001.95043982  .00000313  00000+0  81013-3 0  9992
2 48219  87.9000 322.8341 0001806  86.0965 274.0371 13.14502512226482
ONEWEB-0185             
1 48220U 21031L   26001.90046640 -.00000128  00000+0 -37920-3 0  9997
2 48220  87.9017 322.8239 0001658  99.1461 260.9856 13.14504217226407
ONEWEB-0187             
1 48221U 21031M   26002.18500097  .00000224  00000+0  57073-3 0  9996
2 48221  87.9005 322.8058 0001529  87.0193 273.1112 13.14501053226450
ONEWEB-0192             
1 48222U 21031N   26002.30724069 -.00000078  00000+0 -24546-3 0  9996
2 48222  87.9001 322.7712 0001650  78.0042 282.1272 13.14502579226384
ONEWEB-0219             
1 48223U 21031P   26001.90603002 -.00000145  00000+0 -42619-3 0  9991
2 48223  87.9009 322.8309 0001577  88.6637 271.4673 13.14502117226532
ONEWEB-0202             
1 48224U 21031Q   26001.58253141  .00000094  00000+0  21970-3 0  9999
2 48224  87.9007 322.9059 0001116  63.3701 296.7543 13.14502021226478
ONEWEB-0204             
1 48225U 21031R   26002.30169038 -.00000164  00000+0 -47608-3 0  9998
2 48225  87.9009 322.7538 0001879  89.5575 270.5770 13.14504977226469
ONEWEB-0205             
1 48226U 21031S   26002.27710890 -.00000045  00000+0 -15663-3 0  9997
2 48226  87.9010 322.7518 0001612  87.4572 272.6742 13.14501426226478
ONEWEB-0206             
1 48227U 21031T   26001.41286424  .00000305  00000+0  78803-3 0  9996
2 48227  87.9021 322.9160 0001889  70.9441 289.1893 13.14503018226316
ONEWEB-0182             
1 48228U 21031U   26001.86480749  .00000118  00000+0  28497-3 0  9998
2 48228  87.8997 322.8509 0001841  85.8185 274.3155 13.14501934226583
ONEWEB-0186             
1 48229U 21031V   26001.79978966  .00000314  00000+0  81149-3 0  9995
2 48229  87.9017 322.8435 0001619  83.9077 276.2238 13.14502111226523
ONEWEB-0181             
1 48230U 21031W   26002.31041044  .00000003  00000+0 -25853-4 0  9991
2 48230  87.9005 322.7926 0001543  84.0359 276.0946 13.14501696226449
ONEWEB-0188             
1 48231U 21031X   26002.27234927  .00000099  00000+0  23386-3 0  9993
2 48231  87.9003 322.7976 0001726  82.3916 277.7409 13.14501702226345
ONEWEB-0220             
1 48232U 21031Y   26002.31199150 -.00000017  00000+0 -80164-4 0  9997
2 48232  87.9017 322.7403 0001598  90.9319 269.1993 13.14502925226616
ONEWEB-0165             
1 48233U 21031Z   26001.57936697  .00000201  00000+0  50874-3 0  9997
2 48233  87.9001 322.9102 0001402  75.8044 284.3241 13.14502620226470
ONEWEB-0199             
1 48234U 21031AA  26001.94410109  .00000153  00000+0  37792-3 0  9994
2 48234  87.9009 322.8147 0001842  78.1406 281.9930 13.14502044226426
ONEWEB-0203             
1 48235U 21031AB  26002.31516749  .00000027  00000+0  37707-4 0  9991
2 48235  87.9007 322.7408 0001627  72.7676 287.3632 13.14502332226489
ONEWEB-0197             
1 48236U 21031AC  26001.90906250 -.00000105  00000+0 -31727-3 0  9990
2 48236  87.9010 322.8206 0001966  90.1243 270.0112 13.14502431226348
ONEWEB-0194             
1 48237U 21031AD  26001.88858760  .00000123  00000+0  29801-3 0  9998
2 48237  87.9011 322.8418 0001871  74.5101 285.6235 13.14501437226511
ONEWEB-0193             
1 48238U 21031AE  26002.28503499 -.00000145  00000+0 -42436-3 0  9995
2 48238  87.9008 322.7569 0002032  69.5456 290.5892 13.14501582226516
ONEWEB-0191             
1 48239U 21031AF  26002.29615224 -.00001371  00000+0 -37324-2 0  9998
2 48239  87.9017 322.7465 0001690  80.9546 279.1775 13.14495323226370
ONEWEB-0195             
1 48240U 21031AG  26002.27314505  .00000073  00000+0  16169-3 0  9997
2 48240  87.9023 322.7484 0001311  78.8871 281.2406 13.14502828226359
ONEWEB-0201             
1 48241U 21031AH  26001.80469272  .00000208  00000+0  52680-3 0  9996
2 48241  87.9001 322.8771 0001649  90.6438 269.4881 13.14503983226528
ONEWEB-0207             
1 48242U 21031AJ  26002.31754180  .00000106  00000+0  25274-3 0  9995
2 48242  87.9014 322.7404 0001710  89.4766 270.6560 13.14504775226500
